IRIDIUM 126             
1 42809U 17039G   24038.41442951 -.00000077  00000+0 -34560-4 0  9997
2 42809  86.4006 353.3631 0002047  76.3293 283.8131 14.34217351346589
IRIDIUM 124             
1 42810U 17039H   24038.17137166  .00000618  00000+0  17775-3 0  9998
2 42810  86.4485 290.2186 0001994  91.7178 268.4251 14.43278499350924
IRIDIUM 128             
1 42811U 17039J   24037.91678265  .00000441  00000+0  15055-3 0  9993
2 42811  86.3968  25.0754 0002006  86.9910 273.1516 14.34216928346538
IRIDIUM 121             
1 42812U 17039K   24038.36369112  .00000136  00000+0  41429-4 0  9998
2 42812  86.4010 353.4059 0002177  84.0689 276.0755 14.34218389346568
IRIDIUM 133             
1 42955U 17061A   24038.43688069  .00000215  00000+0  69750-4 0  9999
2 42955  86.3971  24.9545 0002212  85.5057 274.6392 14.34217739331402
IRIDIUM 100             
1 42956U 17061B   24038.43053845  .00000231  00000+0  75335-4 0  9992
2 42956  86.3969  24.8958 0002059  87.4310 272.7121 14.34217593331428
IRIDIUM 122             
1 42957U 17061C   24037.91044255  .00000041  00000+0  75746-5 0  9996
2 42957  86.3966  25.1112 0001985  85.5401 274.6021 14.34216812331332
IRIDIUM 129             
1 42958U 17061D   24038.49396324 -.00000007  00000+0 -95080-5 0  9995
2 42958  86.3967  24.9255 0001942  85.1732 274.9686 14.34216447331430
